{
  "type": "FeatureCollection",
  "features": [
    {
      "type": "Feature",
      "properties": {
        "norad_id": 36585,
        "name": "GPS BIIF-1  (PRN 25)",
        "group": "gnss",
        "lat": 19.030399933554445,
        "lon": 21.833907106274427,
        "alt_km": 20184.183024139893,
        "timestamp": "2025-12-10T04:57:29.860165+00:00",
        "meta_object_name": "GPS BIIF-1  (PRN 25)",
        "meta_object_id": "2010-022A",
        "meta_epoch": "2025-12-09T05:42:57.006720",
        "meta_mean_motion": 2.00552985,
        "meta_eccentricity": 0.0125965,
        "meta_inclination": 54.3007,
        "meta_ra_of_asc_node": 216.2152,
        "meta_arg_of_pericenter": 65.0346,
        "meta_mean_anomaly": 110.6478,
        "meta_ephemeris_type": 0,
        "meta_classification_type": "U",
        "meta_norad_cat_id": 36585,
        "meta_element_set_no": 999,
        "meta_rev_at_epoch": 11378,
        "meta_bstar": 0,
        "meta_mean_motion_dot": 1.4e-07,
        "meta_mean_motion_ddot": 0,
        "tle_line1": "1 36585U 10022A   25343.23815980  .00000014  00000+0  00000+0 0  9998",
        "tle_line2": "2 36585  54.3007 216.2152 0125965  65.0346 110.6478  2.00552985113782"
      },
      "geometry": {
        "type": "Point",
        "coordinates": [
          21.833907106274427,
          19.030399933554445
        ]
      }
    },
    {
      "type": "Feature",
      "properties": {
        "norad_id": 36828,
        "name": "BEIDOU-2 IGSO-1 (C06)",
        "group": "gnss",
        "lat": 53.76334497381242,
        "lon": -94.71032492996468,
        "alt_km": 35885.130095705965,
        "timestamp": "2025-12-10T04:57:29.860177+00:00",
        "meta_object_name": "BEIDOU-2 IGSO-1 (C06)",
        "meta_object_id": "2010-036A",
        "meta_epoch": "2025-12-09T10:39:31.929984",
        "meta_mean_motion": 1.00277193,
        "meta_eccentricity": 0.0051253,
        "meta_inclination": 54.2848,
        "meta_ra_of_asc_node": 164.6772,
        "meta_arg_of_pericenter": 215.9067,
        "meta_mean_anomaly": 325.5876,
        "meta_ephemeris_type": 0,
        "meta_classification_type": "U",
        "meta_norad_cat_id": 36828,
        "meta_element_set_no": 999,
        "meta_rev_at_epoch": 5619,
        "meta_bstar": 0,
        "meta_mean_motion_dot": -6.8e-07,
        "meta_mean_motion_ddot": 0,
        "tle_line1": "1 36828U 10036A   25343.44411956 -.00000068  00000+0  00000+0 0  9991",
        "tle_line2": "2 36828  54.2848 164.6772 0051253 215.9067 325.5876  1.00277193 56196"
      },
      "geometry": {
        "type": "Point",
        "coordinates": [
          -94.71032492996468,
          53.76334497381242
        ]
      }
    },
    {
      "type": "Feature",
      "properties": {
        "norad_id": 37210,
        "name": "BEIDOU-2 G4 (C04)",
        "group": "gnss",
        "lat": -2.8622927164364937,
        "lon": -46.29863397194727,
        "alt_km": 35759.15177371842,
        "timestamp": "2025-12-10T04:57:29.860190+00:00",
        "meta_object_name": "BEIDOU-2 G4 (C04)",
        "meta_object_id": "2010-057A",
        "meta_epoch": "2025-12-09T19:28:14.509920",
        "meta_mean_motion": 1.00271312,
        "meta_eccentricity": 0.0010984,
        "meta_inclination": 3.1773,
        "meta_ra_of_asc_node": 69.9401,
        "meta_arg_of_pericenter": 189.9059,
        "meta_mean_anomaly": 271.0842,
        "meta_ephemeris_type": 0,
        "meta_classification_type": "U",
        "meta_norad_cat_id": 37210,
        "meta_element_set_no": 999,
        "meta_rev_at_epoch": 5539,
        "meta_bstar": 0,
        "meta_mean_motion_dot": -1.09e-06,
        "meta_mean_motion_ddot": 0,
        "tle_line1": "1 37210U 10057A   25343.81127905 -.00000109  00000+0  00000+0 0  9995",
        "tle_line2": "2 37210   3.1773  69.9401 0010984 189.9059 271.0842  1.00271312 55391"
      },
      "geometry": {
        "type": "Point",
        "coordinates": [
          -46.29863397194727,
          -2.8622927164364937
        ]
      }
    },
    {
      "type": "Feature",
      "properties": {
        "norad_id": 37256,
        "name": "BEIDOU-2 IGSO-2 (C07)",
        "group": "gnss",
        "lat": -9.394904182643296,
        "lon": -94.42922118188085,
        "alt_km": 35919.9544886159,
        "timestamp": "2025-12-10T04:57:29.860203+00:00",
        "meta_object_name": "BEIDOU-2 IGSO-2 (C07)",
        "meta_object_id": "2010-068A",
        "meta_epoch": "2025-12-03T17:22:36.027840",
        "meta_mean_motion": 1.0028872,
        "meta_eccentricity": 0.00492449,
        "meta_inclination": 47.9042,
        "meta_ra_of_asc_node": 274.2614,
        "meta_arg_of_pericenter": 216.1411,
        "meta_mean_anomaly": 310.24,
        "meta_ephemeris_type": 0,
        "meta_classification_type": "U",
        "meta_norad_cat_id": 37256,
        "meta_element_set_no": 999,
        "meta_rev_at_epoch": 5483,
        "meta_bstar": 0,
        "meta_mean_motion_dot": -2.25e-06,
        "meta_mean_motion_ddot": 0,
        "tle_line1": "1 37256U 10068A   25337.72402810 -.00000225  00000+0  00000+0 0  9990",
        "tle_line2": "2 37256  47.9042 274.2614 0049244 216.1411 310.2400  1.00288720 54834"
      },
      "geometry": {
        "type": "Point",
        "coordinates": [
          -94.42922118188085,
          -9.394904182643296
        ]
      }
    },
    {
      "type": "Feature",
      "properties": {
        "norad_id": 37384,
        "name": "BEIDOU-2 IGSO-3 (C08)",
        "group": "gnss",
        "lat": -34.13661354224517,
        "lon": -117.0425788580756,
        "alt_km": 35664.80340842216,
        "timestamp": "2025-12-10T04:57:29.860217+00:00",
        "meta_object_name": "BEIDOU-2 IGSO-3 (C08)",
        "meta_object_id": "2011-013A",
        "meta_epoch": "2025-12-07T14:00:04.361184",
        "meta_mean_motion": 1.00271435,
        "meta_eccentricity": 0.0035334,
        "meta_inclination": 62.1366,
        "meta_ra_of_asc_node": 41.9657,
        "meta_arg_of_pericenter": 187.0632,
        "meta_mean_anomaly": 165.2408,
        "meta_ephemeris_type": 0,
        "meta_classification_type": "U",
        "meta_norad_cat_id": 37384,
        "meta_element_set_no": 999,
        "meta_rev_at_epoch": 5373,
        "meta_bstar": 0,
        "meta_mean_motion_dot": -1.91e-06,
        "meta_mean_motion_ddot": 0,
        "tle_line1": "1 37384U 11013A   25341.58338381 -.00000191  00000+0  00000+0 0  9995",
        "tle_line2": "2 37384  62.1366  41.9657 0035334 187.0632 165.2408  1.00271435 53735"
      },
      "geometry": {
        "type": "Point",
        "coordinates": [
          -117.0425788580756,
          -34.13661354224517
        ]
      }
    },
    {
      "type": "Feature",
      "properties": {
        "norad_id": 37605,
        "name": "GSAT-8 (GAGAN/PRN 127)",
        "group": "gnss",
        "lat": 1.3430695843918716,
        "lon": -151.4414295028848,
        "alt_km": 35767.24248549523,
        "timestamp": "2025-12-10T04:57:29.860230+00:00",
        "meta_object_name": "GSAT-8 (GAGAN/PRN 127)",
        "meta_object_id": "2011-022A",
        "meta_epoch": "2025-12-09T19:22:38.521920",
        "meta_mean_motion": 1.00266772,
        "meta_eccentricity": 0.0009064,
        "meta_inclination": 1.6422,
        "meta_ra_of_asc_node": 84.2143,
        "meta_arg_of_pericenter": 182.9589,
        "meta_mean_anomaly": 157.3637,
        "meta_ephemeris_type": 0,
        "meta_classification_type": "U",
        "meta_norad_cat_id": 37605,
        "meta_element_set_no": 999,
        "meta_rev_at_epoch": 5131,
        "meta_bstar": 0,
        "meta_mean_motion_dot": 8.8e-07,
        "meta_mean_motion_ddot": 0,
        "tle_line1": "1 37605U 11022A   25343.80739030  .00000088  00000+0  00000+0 0  9998",
        "tle_line2": "2 37605   1.6422  84.2143 0009064 182.9589 157.3637  1.00266772 51314"
      },
      "geometry": {
        "type": "Point",
        "coordinates": [
          -151.4414295028848,
          1.3430695843918716
        ]
      }
    },
    {
      "type": "Feature",
      "properties": {
        "norad_id": 37763,
        "name": "BEIDOU-2 IGSO-4 (C09)",
        "group": "gnss",
        "lat": 53.24586754165461,
        "lon": -120.08121528700207,
        "alt_km": 36323.11684923019,
        "timestamp": "2025-12-10T04:57:29.860255+00:00",
        "meta_object_name": "BEIDOU-2 IGSO-4 (C09)",
        "meta_object_id": "2011-038A",
        "meta_epoch": "2025-12-01T12:32:09.960864",
        "meta_mean_motion": 1.00284084,
        "meta_eccentricity": 0.01488084,
        "meta_inclination": 54.5806,
        "meta_ra_of_asc_node": 167.4476,
        "meta_arg_of_pericenter": 230.2017,
        "meta_mean_anomaly": 315.0405,
        "meta_ephemeris_type": 0,
        "meta_classification_type": "U",
        "meta_norad_cat_id": 37763,
        "meta_element_set_no": 999,
        "meta_rev_at_epoch": 5266,
        "meta_bstar": 0,
        "meta_mean_motion_dot": 1.01e-06,
        "meta_mean_motion_ddot": 0,
        "tle_line1": "1 37763U 11038A   25335.52233751  .00000101  00000+0  00000+0 0  9995",
        "tle_line2": "2 37763  54.5806 167.4476 0148808 230.2017 315.0405  1.00284084 52669"
      },
      "geometry": {
        "type": "Point",
        "coordinates": [
          -120.08121528700207,
          53.24586754165461
        ]
      }
    }
  ]
}